{
  "type": "FeatureCollection",
  "features": [
    {
      "type": "Feature",
      "properties": {
        "norad_id": 66575,
        "name": "STARLINK-35810",
        "group": "last-30-days",
        "lat": 15.005918602116791,
        "lon": 49.90915216983052,
        "alt_km": 467.7772883844218,
        "timestamp": "2025-12-27T19:21:57.541994+00:00",
        "meta_object_name": "STARLINK-35810",
        "meta_object_id": "2025-268U",
        "meta_epoch": "2025-12-27T12:00:02.000160",
        "meta_mean_motion": 15.33224829,
        "meta_eccentricity": 0.0001386,
        "meta_inclination": 43.0007,
        "meta_ra_of_asc_node": 34.9387,
        "meta_arg_of_pericenter": 294.9986,
        "meta_mean_anomaly": 192.1842,
        "meta_ephemeris_type": 0,
        "meta_classification_type": "U",
        "meta_norad_cat_id": 66575,
        "meta_element_set_no": 999,
        "meta_rev_at_epoch": 599,
        "meta_bstar": -0.066883,
        "meta_mean_motion_dot": -0.0195419,
        "meta_mean_motion_ddot": 0,
        "tle_line1": "1 66575U 25268U   25361.50002315 -.01954190  00000+0 -66883-1 0  9997",
        "tle_line2": "2 66575  43.0007  34.9387 0001386 294.9986 192.1842 15.33224829  5993"
      },
      "geometry": {
        "type": "Point",
        "coordinates": [
          49.90915216983052,
          15.005918602116791
        ]
      }
    },
    {
      "type": "Feature",
      "properties": {
        "norad_id": 66576,
        "name": "STARLINK-35814",
        "group": "last-30-days",
        "lat": 26.22449410899851,
        "lon": 65.05842153900574,
        "alt_km": 463.7789093377587,
        "timestamp": "2025-12-27T19:21:57.542003+00:00",
        "meta_object_name": "STARLINK-35814",
        "meta_object_id": "2025-268V",
        "meta_epoch": "2025-12-27T12:00:02.000160",
        "meta_mean_motion": 15.34057497,
        "meta_eccentricity": 0.0001326,
        "meta_inclination": 43.0003,
        "meta_ra_of_asc_node": 34.8964,
        "meta_arg_of_pericenter": 297.162,
        "meta_mean_anomaly": 207.165,
        "meta_ephemeris_type": 0,
        "meta_classification_type": "U",
        "meta_norad_cat_id": 66576,
        "meta_element_set_no": 999,
        "meta_rev_at_epoch": 604,
        "meta_bstar": -0.064881,
        "meta_mean_motion_dot": -0.0194761,
        "meta_mean_motion_ddot": 0,
        "tle_line1": "1 66576U 25268V   25361.50002315 -.01947610  00000+0 -64881-1 0  9993",
        "tle_line2": "2 66576  43.0003  34.8964 0001326 297.1620 207.1650 15.34057497  6041"
      },
      "geometry": {
        "type": "Point",
        "coordinates": [
          65.05842153900574,
          26.22449410899851
        ]
      }
    },
    {
      "type": "Feature",
      "properties": {
        "norad_id": 66577,
        "name": "STARLINK-35815",
        "group": "last-30-days",
        "lat": 39.53425430036834,
        "lon": 95.41406682819543,
        "alt_km": 457.7795301060014,
        "timestamp": "2025-12-27T19:21:57.542013+00:00",
        "meta_object_name": "STARLINK-35815",
        "meta_object_id": "2025-268W",
        "meta_epoch": "2025-12-27T12:00:02.000160",
        "meta_mean_motion": 15.35478619,
        "meta_eccentricity": 0.0001377,
        "meta_inclination": 43.0006,
        "meta_ra_of_asc_node": 34.8325,
        "meta_arg_of_pericenter": 293.6442,
        "meta_mean_anomaly": 237.6603,
        "meta_ephemeris_type": 0,
        "meta_classification_type": "U",
        "meta_norad_cat_id": 66577,
        "meta_element_set_no": 999,
        "meta_rev_at_epoch": 599,
        "meta_bstar": -0.05933,
        "meta_mean_motion_dot": -0.01873009,
        "meta_mean_motion_ddot": 0,
        "tle_line1": "1 66577U 25268W   25361.50002315 -.01873009  00000+0 -59330-1 0  9997",
        "tle_line2": "2 66577  43.0006  34.8325 0001377 293.6442 237.6603 15.35478619  5998"
      },
      "geometry": {
        "type": "Point",
        "coordinates": [
          95.41406682819543,
          39.53425430036834
        ]
      }
    },
    {
      "type": "Feature",
      "properties": {
        "norad_id": 66578,
        "name": "STARLINK-35743",
        "group": "last-30-days",
        "lat": 42.820972563079934,
        "lon": 116.98641684370982,
        "alt_km": 454.8960489666606,
        "timestamp": "2025-12-27T19:21:57.542023+00:00",
        "meta_object_name": "STARLINK-35743",
        "meta_object_id": "2025-268X",
        "meta_epoch": "2025-12-27T12:00:02.000160",
        "meta_mean_motion": 15.36365757,
        "meta_eccentricity": 9.59e-05,
        "meta_inclination": 43.0007,
        "meta_ra_of_asc_node": 34.7915,
        "meta_arg_of_pericenter": 300.4555,
        "meta_mean_anomaly": 246.4529,
        "meta_ephemeris_type": 0,
        "meta_classification_type": "U",
        "meta_norad_cat_id": 66578,
        "meta_element_set_no": 999,
        "meta_rev_at_epoch": 604,
        "meta_bstar": -0.062102,
        "meta_mean_motion_dot": -0.020016,
        "meta_mean_motion_ddot": 0,
        "tle_line1": "1 66578U 25268X   25361.50002315 -.02001600  00000+0 -62102-1 0  9990",
        "tle_line2": "2 66578  43.0007  34.7915 0000959 300.4555 246.4529 15.36365757  6042"
      },
      "geometry": {
        "type": "Point",
        "coordinates": [
          116.98641684370982,
          42.820972563079934
        ]
      }
    },
    {
      "type": "Feature",
      "properties": {
        "norad_id": 66579,
        "name": "STARLINK-35868",
        "group": "last-30-days",
        "lat": 41.90669955171002,
        "lon": 138.61936503275038,
        "alt_km": 452.6522254246029,
        "timestamp": "2025-12-27T19:21:57.542032+00:00",
        "meta_object_name": "STARLINK-35868",
        "meta_object_id": "2025-268Y",
        "meta_epoch": "2025-12-27T12:00:02.000160",
        "meta_mean_motion": 15.3721055,
        "meta_eccentricity": 9.11e-05,
        "meta_inclination": 43.0008,
        "meta_ra_of_asc_node": 34.7554,
        "meta_arg_of_pericenter": 298.2518,
        "meta_mean_anomaly": 263.7045,
        "meta_ephemeris_type": 0,
        "meta_classification_type": "U",
        "meta_norad_cat_id": 66579,
        "meta_element_set_no": 999,
        "meta_rev_at_epoch": 604,
        "meta_bstar": -0.060956,
        "meta_mean_motion_dot": -0.0201758,
        "meta_mean_motion_ddot": 0,
        "tle_line1": "1 66579U 25268Y   25361.50002315 -.02017580  00000+0 -60956-1 0  9990",
        "tle_line2": "2 66579  43.0008  34.7554 0000911 298.2518 263.7045 15.37210550  6040"
      },
      "geometry": {
        "type": "Point",
        "coordinates": [
          138.61936503275038,
          41.90669955171002
        ]
      }
    },
    {
      "type": "Feature",
      "properties": {
        "norad_id": 66580,
        "name": "STARLINK-35872",
        "group": "last-30-days",
        "lat": 37.405880949440224,
        "lon": 157.81318902138514,
        "alt_km": 450.8829156337688,
        "timestamp": "2025-12-27T19:21:57.542042+00:00",
        "meta_object_name": "STARLINK-35872",
        "meta_object_id": "2025-268Z",
        "meta_epoch": "2025-12-27T12:00:02.000160",
        "meta_mean_motion": 15.37971057,
        "meta_eccentricity": 9.24e-05,
        "meta_inclination": 43.0007,
        "meta_ra_of_asc_node": 34.7201,
        "meta_arg_of_pericenter": 283.8932,
        "meta_mean_anomaly": 292.6129,
        "meta_ephemeris_type": 0,
        "meta_classification_type": "U",
        "meta_norad_cat_id": 66580,
        "meta_element_set_no": 999,
        "meta_rev_at_epoch": 599,
        "meta_bstar": -0.056972,
        "meta_mean_motion_dot": -0.01942389,
        "meta_mean_motion_ddot": 0,
        "tle_line1": "1 66580U 25268Z   25361.50002315 -.01942389  00000+0 -56972-1 0  9998",
        "tle_line2": "2 66580  43.0007  34.7201 0000924 283.8932 292.6129 15.37971057  5997"
      },
      "geometry": {
        "type": "Point",
        "coordinates": [
          157.81318902138514,
          37.405880949440224
        ]
      }
    },
    {
      "type": "Feature",
      "properties": {
        "norad_id": 66581,
        "name": "STARLINK-35744",
        "group": "last-30-days",
        "lat": 30.512624637138018,
        "lon": 173.69410580851638,
        "alt_km": 449.41276767389445,
        "timestamp": "2025-12-27T19:21:57.542051+00:00",
        "meta_object_name": "STARLINK-35744",
        "meta_object_id": "2025-268AA",
        "meta_epoch": "2025-12-27T12:00:02.000160",
        "meta_mean_motion": 15.38884848,
        "meta_eccentricity": 8.74e-05,
        "meta_inclination": 43.0006,
        "meta_ra_of_asc_node": 34.6856,
        "meta_arg_of_pericenter": 298.7326,
        "meta_mean_anomaly": 291.6388,
        "meta_ephemeris_type": 0,
        "meta_classification_type": "U",
        "meta_norad_cat_id": 66581,
        "meta_element_set_no": 999,
        "meta_rev_at_epoch": 599,
        "meta_bstar": -0.057608,
        "meta_mean_motion_dot": -0.02015117,
        "meta_mean_motion_ddot": 0,
        "tle_line1": "1 66581U 25268AA  25361.50002315 -.02015117  00000+0 -57608-1 0  9997",
        "tle_line2": "2 66581  43.0006  34.6856 0000874 298.7326 291.6388 15.38884848  5996"
      },
      "geometry": {
        "type": "Point",
        "coordinates": [
          173.69410580851638,
          30.512624637138018
        ]
      }
    }
  ]
}